LVM3 R/B                
1 66310U 25249A   25334.06923045  .00047337  27630-6  13035-2 0  9996
2 66310  21.3469 144.7332 6669483 206.7231  92.3964  3.14154353   888
ELECTRON R/B            
1 66317U 25252B   25333.88053485  .01669799  79110-5  19143-2 0  9996
2 66317  41.9889 130.1303 0124669  46.1701 314.9386 15.94243293  3786
ELECTRON KICK STAGE R/B 
1 66318U 25252C   25333.88236074  .07609678  78949-5  14467-2 0  9993
2 66318  41.9678 128.3366 0048366 209.2072 150.6092 16.27204594  3803
CZ-11 DEB               
1 66377U 25255B   25334.10906637  .00042477  00000+0  94232-3 0  9993
2 66377  52.9962 237.9909 0013993   0.9113 359.1915 15.43235290  3260
SHIYAN-32 03            
1 66379U 25255D   25334.04869998  .00022252  00000+0  51189-3 0  9999
2 66379  52.9971 238.3278 0015370   3.9387 356.1736 15.42476268  3273
ZK-1A R/B               
1 66411U 25256C   25324.72402141  .00011214  00000+0  48988-3 0  9993
2 66411  98.3243  30.9055 0232353 318.4537  39.9225 15.01236100  1741
CZ-12 R/B               
1 66421U 25258K   25333.27879624 -.00000088  00000+0  24340-4 0  9995
2 66421  49.9957 316.3592 0064604 201.0382 158.7879 14.42314254  2770
ATLAS 5 CENTAUR R/B     
1 66455U 25261B   25330.76889782 -.00000052  00000+0  00000+0 0  9996
2 66455   6.1673 293.2138 2329931 183.2713 340.9993  2.28258333   286
